     2              NAVIGATION DATA                         RINEX VERSION / TYPE
CCRINEXN V1.6.0 UX  CDDIS               20-MAR-16 23:39     PGM / RUN BY / DATE 
IGS BROADCAST EPHEMERIS FILE                                COMMENT             
    0.1676D-07  0.7451D-08 -0.1192D-06  0.0000D+00          ION ALPHA           
    0.1106D+06  0.0000D+00 -0.2621D+06  0.0000D+00          ION BETA            
    0.931322574615D-09 0.355271367880D-14   233472     1889 DELTA-UTC: A0,A1,T,W
    17                                                      LEAP SECONDS        
                                                            END OF HEADER       
 9 16  3 20 10  0  0.0 0.934717245400D-04 0.750333128963D-11 0.000000000000D+00
    0.600000000000D+02 0.276562500000D+02 0.500878006437D-08 0.547870375194D+00
    0.130385160446D-05 0.652196118608D-03 0.439770519733D-05 0.515361043739D+04
    0.360000000000D+05-0.130385160446D-07 0.105138497036D+01 0.745058059692D-08
    0.955272308778D+00 0.291250000000D+03 0.200272027254D+01-0.839356391134D-08
    0.532165023952D-10 0.000000000000D+00 0.188900000000D+04 0.000000000000D+00
    0.200000000000D+01 0.000000000000D+00 0.139698386192D-08 0.600000000000D+02
    0.320400000000D+05 0.400000000000D+01 0.000000000000D+00 0.000000000000D+00
10 16  3 20 10  0  0.0 0.231196172535D-04-0.886757334229D-11 0.000000000000D+00
    0.540000000000D+02 0.245312500000D+02 0.446411451972D-08 0.258652581717D+01
    0.129640102386D-05 0.127842894290D-02 0.117272138596D-04 0.515369101143D+04
    0.360000000000D+05 0.000000000000D+00 0.737781625280D-02-0.931322574616D-08
    0.960034851751D+00 0.154781250000D+03-0.281838255516D+01-0.789247161027D-08
    0.351800368183D-09 0.100000000000D+01 0.188900000000D+04 0.000000000000D+00
    0.200000000000D+01 0.000000000000D+00 0.232830643654D-08 0.540000000000D+02
    0.352380000000D+05 0.400000000000D+01 0.000000000000D+00 0.000000000000D+00
11 16  3 20 10  0  0.0-0.637415796518D-03-0.159161572810D-11 0.000000000000D+00
    0.150000000000D+02-0.859687500000D+02 0.620382984299D-08-0.206216807723D+01
   -0.420399010181D-05 0.162395834923D-01 0.320374965668D-05 0.515365599632D+04
    0.360000000000D+05 0.309199094772D-06-0.140184942278D+01 0.128522515297D-06
    0.895671885152D+00 0.276437500000D+03 0.150786713256D+01-0.884786854924D-08
   -0.176793078427D-09 0.000000000000D+00 0.188900000000D+04 0.000000000000D+00
    0.200000000000D+01 0.000000000000D+00-0.121071934700D-07 0.150000000000D+02
    0.288000000000D+05 0.400000000000D+01 0.000000000000D+00 0.000000000000D+00
12 16  3 20 10  0  0.0 0.373136717826D-03 0.147792889038D-11 0.000000000000D+00
    0.500000000000D+02 0.716562500000D+02 0.354764773114D-08-0.263542412022D+01
    0.368431210518D-05 0.598847423680D-02 0.102110207081D-04 0.515376948166D+04
    0.360000000000D+05-0.186264514923D-07-0.307918232860D+01 0.558793544769D-08
    0.990646528130D+00 0.198843750000D+03 0.691168951790D+00-0.749924122800D-08
    0.351800366616D-09 0.100000000000D+01 0.188900000000D+04 0.000000000000D+00
    0.200000000000D+01 0.000000000000D+00-0.121071934700D-07 0.500000000000D+02
    0.288300000000D+05 0.000000000000D+00 0.000000000000D+00 0.000000000000D+00
13 16  3 20 10  0  0.0-0.485405325890D-05-0.284217094304D-11 0.000000000000D+00
    0.900000000000D+02 0.956250000000D+01 0.472162531295D-08-0.123325956002D+01
    0.549480319023D-06 0.460891763214D-02 0.431761145592D-05 0.515367578888D+04
    0.360000000000D+05-0.100582838059D-06 0.117112378086D+01-0.391155481338D-07
    0.971639743461D+00 0.299000000000D+03 0.198638140572D+01-0.832248936433D-08
   -0.746459630219D-10 0.100000000000D+01 0.188900000000D+04 0.000000000000D+00
    0.280000000000D+01 0.000000000000D+00-0.111758708954D-07 0.900000000000D+02
    0.288300000000D+05 0.000000000000D+00 0.000000000000D+00 0.000000000000D+00
14 16  3 20 10  0  0.0-0.359164550900D-05-0.227373675443D-11 0.000000000000D+00
    0.540000000000D+02 0.181562500000D+02 0.490377569051D-08 0.586874243519D+00
    0.101700425148D-05 0.840754050296D-02 0.462494790554D-05 0.515373125076D+04
    0.360000000000D+05-0.121071934700D-06 0.113449620059D+01 0.298023223877D-07
    0.964155226352D+00 0.294843750000D+03-0.195345255927D+01-0.847749597888D-08
   -0.982183769039D-10 0.100000000000D+01 0.188900000000D+04 0.000000000000D+00
    0.200000000000D+01 0.000000000000D+00-0.931322574616D-08 0.540000000000D+02
    0.288000000000D+05 0.000000000000D+00 0.000000000000D+00 0.000000000000D+00
15 16  3 20 10  0  0.0-0.302590895444D-03-0.181898940355D-11 0.000000000000D+00
    0.400000000000D+02 0.269687500000D+02 0.567987923361D-08-0.214969954224D+00
    0.138953328133D-05 0.808564154431D-02 0.414252281189D-05 0.515355201340D+04
    0.360000000000D+05 0.577419996262D-07 0.100046760337D+01 0.800937414169D-07
    0.931066434677D+00 0.280812500000D+03 0.478004207754D+00-0.885501183490D-08
    0.253581999149D-10 0.100000000000D+01 0.188900000000D+04 0.000000000000D+00
    0.200000000000D+01 0.000000000000D+00-0.107102096081D-07 0.400000000000D+02
    0.288300000000D+05 0.000000000000D+00 0.000000000000D+00 0.000000000000D+00
16 16  3 20 10  0  0.0-0.308146700263D-04 0.295585778076D-11 0.000000000000D+00
    0.460000000000D+02 0.771875000000D+02 0.356657713368D-08 0.159587696446D+01
    0.410899519920D-05 0.868472608272D-02 0.108554959297D-04 0.515373343468D+04
    0.360000000000D+05-0.372529029846D-07-0.306043300288D+01 0.745058059692D-07
    0.991158727934D+00 0.186062500000D+03 0.343180521863D+00-0.768210570482D-08
    0.243224416987D-09 0.100000000000D+01 0.188900000000D+04 0.000000000000D+00
    0.200000000000D+01 0.000000000000D+00-0.102445483208D-07 0.460000000000D+02
    0.288000000000D+05 0.400000000000D+01 0.000000000000D+00 0.000000000000D+00
17 16  3 20 10  0  0.0-0.202266033739D-03-0.454747350886D-12 0.000000000000D+00
    0.280000000000D+02 0.147500000000D+02 0.460376314848D-08 0.652914747057D+00
    0.622123479843D-06 0.109892468900D-01 0.311993062496D-05 0.515365543556D+04
    0.360000000000D+05-0.109896063805D-06-0.203826912042D+01 0.391155481338D-07
    0.975386532673D+00 0.325531250000D+03-0.193533406870D+01-0.849606784925D-08
    0.135005617796D-09 0.100000000000D+01 0.188900000000D+04 0.000000000000D+00
    0.200000000000D+01 0.000000000000D+00-0.107102096081D-07 0.280000000000D+02
    0.288300000000D+05 0.000000000000D+00 0.000000000000D+00 0.000000000000D+00
18 16  3 20 10  0  0.0 0.495634973049D-03 0.409272615798D-11 0.000000000000D+00
    0.470000000000D+02 0.151875000000D+02 0.513164222227D-08 0.221443780438D+01
    0.583007931709D-06 0.168417154346D-01 0.115372240543D-04 0.515367526627D+04
    0.360000000000D+05 0.128522515297D-06-0.191501550294D-01-0.275671482086D-06
    0.925511174432D+00 0.134218750000D+03-0.190369655905D+01-0.804819233480D-08
    0.292512181144D-09 0.100000000000D+01 0.188900000000D+04 0.000000000000D+00
    0.200000000000D+01 0.000000000000D+00-0.111758708954D-07 0.470000000000D+02
    0.356700000000D+05 0.000000000000D+00 0.000000000000D+00 0.000000000000D+00
21 16  3 20 10  0  0.0-0.515643972904D-03-0.159161572810D-11 0.000000000000D+00
    0.580000000000D+02-0.111093750000D+03 0.506663955235D-08 0.308157127090D+01
   -0.586360692978D-05 0.233017168939D-01 0.786036252975D-05 0.515365750885D+04
    0.360000000000D+05 0.383704900742D-06-0.106113616492D+01-0.236555933952D-06
    0.935782113070D+00 0.210531250000D+03-0.181367425072D+01-0.809140843216D-08
   -0.341085631961D-09 0.100000000000D+01 0.188900000000D+04 0.000000000000D+00
    0.200000000000D+01 0.000000000000D+00-0.116415321827D-07 0.580000000000D+02
    0.359700000000D+05 0.000000000000D+00 0.000000000000D+00 0.000000000000D+00
22 16  3 20 10  0  0.0 0.378153286874D-03-0.682121026330D-11 0.000000000000D+00
    0.430000000000D+02 0.183750000000D+02 0.537950979246D-08 0.650743936085D+00
    0.120513141155D-05 0.777321774512D-02 0.115502625704D-04 0.515507220268D+04
    0.360000000000D+05-0.316649675369D-07-0.184014452598D-01 0.540167093277D-07
    0.923372939721D+00 0.140031250000D+03-0.200729413565D+01-0.850535428215D-08
    0.258225041824D-09 0.000000000000D+00 0.188900000000D+04 0.000000000000D+00
    0.200000000000D+01 0.000000000000D+00-0.176951289177D-07 0.430000000000D+02
    0.288000000000D+05 0.400000000000D+01 0.000000000000D+00 0.000000000000D+00
23 16  3 20 10  0  0.0-0.165525358170D-03-0.181898940355D-11 0.000000000000D+00
    0.310000000000D+02 0.269687500000D+02 0.529307762079D-08-0.631241996072D+00
    0.132434070110D-05 0.106097880052D-01 0.414624810219D-05 0.515370129394D+04
    0.360000000000D+05 0.150874257088D-06 0.105725632185D+01 0.167638063431D-06
    0.946221860750D+00 0.289406250000D+03-0.260302156001D+01-0.864214569434D-08
    0.500020827875D-11 0.000000000000D+00 0.188900000000D+04 0.000000000000D+00
    0.200000000000D+01 0.000000000000D+00-0.200234353542D-07 0.310000000000D+02
    0.288000000000D+05 0.400000000000D+01 0.000000000000D+00 0.000000000000D+00
24 16  3 20 10  0  0.0-0.141882337630D-04-0.568434188608D-12 0.000000000000D+00
    0.890000000000D+02-0.391875000000D+02 0.469055239094D-08-0.125285492052D+01
   -0.207498669624D-05 0.436473882291D-02 0.840425491333D-05 0.515362714195D+04
    0.360000000000D+05 0.102445483208D-06 0.208378610923D+01-0.894069671631D-07
    0.949996977907D+00 0.213062500000D+03 0.398239744947D+00-0.812355249735D-08
   -0.519664478116D-09 0.100000000000D+01 0.188900000000D+04 0.000000000000D+00
    0.200000000000D+01 0.000000000000D+00 0.232830643654D-08 0.890000000000D+02
    0.322500000000D+05 0.000000000000D+00 0.000000000000D+00 0.000000000000D+00
